{
  "type": "FeatureCollection",
  "features": [
    {
      "type": "Feature",
      "properties": {
        "norad_id": 34434,
        "name": "COSMOS 2251 DEB",
        "group": "cosmos-2251-debris",
        "lat": 64.37891802706461,
        "lon": 154.402232232199,
        "alt_km": 762.4474936837223,
        "timestamp": "2025-12-12T05:47:29.165734+00:00",
        "meta_object_name": "COSMOS 2251 DEB",
        "meta_object_id": "1993-036SB",
        "meta_epoch": "2025-12-11T20:57:09.557856",
        "meta_mean_motion": 13.89804782,
        "meta_eccentricity": 0.02750475,
        "meta_inclination": 74.0631,
        "meta_ra_of_asc_node": 11.5983,
        "meta_arg_of_pericenter": 149.112,
        "meta_mean_anomaly": 281.1696,
        "meta_ephemeris_type": 0,
        "meta_classification_type": "U",
        "meta_norad_cat_id": 34434,
        "meta_element_set_no": 999,
        "meta_rev_at_epoch": 83954,
        "meta_bstar": 0.0041577023,
        "meta_mean_motion_dot": 6.911e-05,
        "meta_mean_motion_ddot": 0,
        "tle_line1": "1 34434U 93036SB  25345.87302729  .00006911  00000+0  41577-2 0  9998",
        "tle_line2": "2 34434  74.0631  11.5983 0275047 149.1120 281.1696 13.89804782839543"
      },
      "geometry": {
        "type": "Point",
        "coordinates": [
          154.402232232199,
          64.37891802706461
        ]
      }
    },
    {
      "type": "Feature",
      "properties": {
        "norad_id": 34446,
        "name": "COSMOS 2251 DEB",
        "group": "cosmos-2251-debris",
        "lat": -11.48987650043241,
        "lon": -118.44854844322154,
        "alt_km": 695.4651813084783,
        "timestamp": "2025-12-12T05:47:29.165744+00:00",
        "meta_object_name": "COSMOS 2251 DEB",
        "meta_object_id": "1993-036SP",
        "meta_epoch": "2025-12-11T07:22:20.954208",
        "meta_mean_motion": 14.49350894,
        "meta_eccentricity": 0.00512241,
        "meta_inclination": 74.0423,
        "meta_ra_of_asc_node": 59.9681,
        "meta_arg_of_pericenter": 198.3289,
        "meta_mean_anomaly": 161.6028,
        "meta_ephemeris_type": 0,
        "meta_classification_type": "U",
        "meta_norad_cat_id": 34446,
        "meta_element_set_no": 999,
        "meta_rev_at_epoch": 88673,
        "meta_bstar": 0.0002443455,
        "meta_mean_motion_dot": 9.21e-06,
        "meta_mean_motion_ddot": 0,
        "tle_line1": "1 34446U 93036SP  25345.30718697  .00000921  00000+0  24435-3 0  9994",
        "tle_line2": "2 34446  74.0423  59.9681 0051224 198.3289 161.6028 14.49350894886738"
      },
      "geometry": {
        "type": "Point",
        "coordinates": [
          -118.44854844322154,
          -11.48987650043241
        ]
      }
    },
    {
      "type": "Feature",
      "properties": {
        "norad_id": 34449,
        "name": "COSMOS 2251 DEB",
        "group": "cosmos-2251-debris",
        "lat": -69.89168330276067,
        "lon": -56.98631066070546,
        "alt_km": 602.6244544792953,
        "timestamp": "2025-12-12T05:47:29.165754+00:00",
        "meta_object_name": "COSMOS 2251 DEB",
        "meta_object_id": "1993-036SS",
        "meta_epoch": "2025-12-11T08:02:08.268288",
        "meta_mean_motion": 14.94757547,
        "meta_eccentricity": 0.00233275,
        "meta_inclination": 74.033,
        "meta_ra_of_asc_node": 73.3923,
        "meta_arg_of_pericenter": 116.6718,
        "meta_mean_anomaly": 304.6957,
        "meta_ephemeris_type": 0,
        "meta_classification_type": "U",
        "meta_norad_cat_id": 34449,
        "meta_element_set_no": 999,
        "meta_rev_at_epoch": 88672,
        "meta_bstar": 0.0059474775,
        "meta_mean_motion_dot": 0.00065566,
        "meta_mean_motion_ddot": 0,
        "tle_line1": "1 34449U 93036SS  25345.33481792  .00065566  00000+0  59475-2 0  9990",
        "tle_line2": "2 34449  74.0330  73.3923 0023327 116.6718 304.6957 14.94757547886725"
      },
      "geometry": {
        "type": "Point",
        "coordinates": [
          -56.98631066070546,
          -69.89168330276067
        ]
      }
    },
    {
      "type": "Feature",
      "properties": {
        "norad_id": 34451,
        "name": "COSMOS 2251 DEB",
        "group": "cosmos-2251-debris",
        "lat": -45.12316536118246,
        "lon": -74.42826922223813,
        "alt_km": 595.1233689544033,
        "timestamp": "2025-12-12T05:47:29.165765+00:00",
        "meta_object_name": "COSMOS 2251 DEB",
        "meta_object_id": "1993-036SU",
        "meta_epoch": "2025-12-11T17:32:30.157440",
        "meta_mean_motion": 14.95485056,
        "meta_eccentricity": 0.00243257,
        "meta_inclination": 74.0461,
        "meta_ra_of_asc_node": 89.9042,
        "meta_arg_of_pericenter": 110.1936,
        "meta_mean_anomaly": 250.1868,
        "meta_ephemeris_type": 0,
        "meta_classification_type": "U",
        "meta_norad_cat_id": 34451,
        "meta_element_set_no": 999,
        "meta_rev_at_epoch": 88620,
        "meta_bstar": 0.0042516406,
        "meta_mean_motion_dot": 0.0004764,
        "meta_mean_motion_ddot": 0,
        "tle_line1": "1 34451U 93036SU  25345.73090460  .00047640  00000+0  42516-2 0  9996",
        "tle_line2": "2 34451  74.0461  89.9042 0024325 110.1936 250.1868 14.95485056886201"
      },
      "geometry": {
        "type": "Point",
        "coordinates": [
          -74.42826922223813,
          -45.12316536118246
        ]
      }
    },
    {
      "type": "Feature",
      "properties": {
        "norad_id": 34452,
        "name": "COSMOS 2251 DEB",
        "group": "cosmos-2251-debris",
        "lat": -65.58357186099427,
        "lon": 144.75905587500594,
        "alt_km": 497.6245319386617,
        "timestamp": "2025-12-12T05:47:29.165774+00:00",
        "meta_object_name": "COSMOS 2251 DEB",
        "meta_object_id": "1993-036SV",
        "meta_epoch": "2025-12-12T00:25:51.070080",
        "meta_mean_motion": 15.11648851,
        "meta_eccentricity": 0.0066367,
        "meta_inclination": 74.0361,
        "meta_ra_of_asc_node": 184.314,
        "meta_arg_of_pericenter": 260.8574,
        "meta_mean_anomaly": 252.5595,
        "meta_ephemeris_type": 0,
        "meta_classification_type": "U",
        "meta_norad_cat_id": 34452,
        "meta_element_set_no": 999,
        "meta_rev_at_epoch": 90651,
        "meta_bstar": 0.0010905313,
        "meta_mean_motion_dot": 0.00019569,
        "meta_mean_motion_ddot": 0,
        "tle_line1": "1 34452U 93036SV  25346.01795220  .00019569  00000+0  10905-2 0  9991",
        "tle_line2": "2 34452  74.0361 184.3140 0066367 260.8574 252.5595 15.11648851906516"
      },
      "geometry": {
        "type": "Point",
        "coordinates": [
          144.75905587500594,
          -65.58357186099427
        ]
      }
    },
    {
      "type": "Feature",
      "properties": {
        "norad_id": 34453,
        "name": "COSMOS 2251 DEB",
        "group": "cosmos-2251-debris",
        "lat": 46.166628130061675,
        "lon": 117.59187984618809,
        "alt_km": 290.97596676176,
        "timestamp": "2025-12-12T05:47:29.165785+00:00",
        "meta_object_name": "COSMOS 2251 DEB",
        "meta_object_id": "1993-036SW",
        "meta_epoch": "2025-12-11T14:27:42.338304",
        "meta_mean_motion": 15.84318008,
        "meta_eccentricity": 0.00235977,
        "meta_inclination": 74.1047,
        "meta_ra_of_asc_node": 101.7985,
        "meta_arg_of_pericenter": 343.8106,
        "meta_mean_anomaly": 16.2368,
        "meta_ephemeris_type": 0,
        "meta_classification_type": "U",
        "meta_norad_cat_id": 34453,
        "meta_element_set_no": 999,
        "meta_rev_at_epoch": 88849,
        "meta_bstar": 0.018648609,
        "meta_mean_motion_dot": 0.03671882,
        "meta_mean_motion_ddot": 0.013569086,
        "tle_line1": "1 34453U 93036SW  25345.60257336  .03671882  13569-1  18649-1 0  9990",
        "tle_line2": "2 34453  74.1047 101.7985 0023597 343.8106  16.2368 15.84318008888497"
      },
      "geometry": {
        "type": "Point",
        "coordinates": [
          117.59187984618809,
          46.166628130061675
        ]
      }
    },
    {
      "type": "Feature",
      "properties": {
        "norad_id": 34454,
        "name": "COSMOS 2251 DEB",
        "group": "cosmos-2251-debris",
        "lat": 73.68893848079979,
        "lon": 20.940170022719506,
        "alt_km": 764.6048909426354,
        "timestamp": "2025-12-12T05:47:29.165795+00:00",
        "meta_object_name": "COSMOS 2251 DEB",
        "meta_object_id": "1993-036SX",
        "meta_epoch": "2025-12-11T21:00:58.892832",
        "meta_mean_motion": 14.38806452,
        "meta_eccentricity": 0.00355645,
        "meta_inclination": 74.0588,
        "meta_ra_of_asc_node": 279.2284,
        "meta_arg_of_pericenter": 341.9036,
        "meta_mean_anomaly": 18.085,
        "meta_ephemeris_type": 0,
        "meta_classification_type": "U",
        "meta_norad_cat_id": 34454,
        "meta_element_set_no": 999,
        "meta_rev_at_epoch": 88055,
        "meta_bstar": 0.00041868211,
        "meta_mean_motion_dot": 1.27e-05,
        "meta_mean_motion_ddot": 0,
        "tle_line1": "1 34454U 93036SX  25345.87568163  .00001270  00000+0  41868-3 0  9993",
        "tle_line2": "2 34454  74.0588 279.2284 0035564 341.9036  18.0850 14.38806452880556"
      },
      "geometry": {
        "type": "Point",
        "coordinates": [
          20.940170022719506,
          73.68893848079979
        ]
      }
    }
  ]
}